{
  "type": "FeatureCollection",
  "features": [
    {
      "type": "Feature",
      "properties": {
        "name": "Chinatown",
        "definition_note": "Derived from the NYC DCP 2020 Neighborhood Tabulation Area 'Chinatown-Two Bridges' (NTA2020 code MN0301), split along the Division Street centerline (NYC DOT LION centerline dataset, street segments matching full_street_name='DIVISION ST' in Manhattan). This NTA does not distinguish Chinatown from Two Bridges; the split point and the decision to treat them as two study areas are researcher judgments for this project, not official City geography. Chinatown is the portion north of the Division Street line."
      },
      "geometry": {
        "type": "Polygon",
        "coordinates": [
          [
            [
              -74.00085904309991,
              40.7142036691117
            ],
            [
              -74.00074652283325,
              40.714510353738596
            ],
            [
              -74.00045462977894,
              40.71436504759906
            ],
            [
              -74.00052734788574,
              40.715170059365484
            ],
            [
              -74.00078955054066,
              40.71529096840161
            ],
            [
              -74.0005783915007,
              40.71557090342701
            ],
            [
              -74.00013820907833,
              40.716199730562494
            ],
            [
              -73.999930976899,
              40.716543914270694
            ],
            [
              -73.99944838180335,
              40.7173297970985
            ],
            [
              -73.99931241612073,
              40.71755024177758
            ],
            [
              -73.9985892550198,
              40.71709951153728
            ],
            [
              -73.99776285925765,
              40.71681392862427
            ],
            [
              -73.99698375215492,
              40.71654054317223
            ],
            [
              -73.99605872612268,
              40.71623164071364
            ],
            [
              -73.99580912195114,
              40.716644660210676
            ],
            [
              -73.99542875812696,
              40.71727924304803
            ],
            [
              -73.99480778889196,
              40.71845742685302
            ],
            [
              -73.99382785532453,
              40.71814447755253
            ],
            [
              -73.99309432105578,
              40.7179224792367
            ],
            [
              -73.99222064285155,
              40.71765844676515
            ],
            [
              -73.99142272626793,
              40.71741757692699
            ],
            [
              -73.99130415304928,
              40.71738168193557
            ],
            [
              -73.99117623136941,
              40.71734296009509
            ],
            [
              -73.99070289946383,
              40.71720060592557
            ],
            [
              -73.9899501906863,
              40.7169719755547
            ],
            [
              -73.98915463750744,
              40.716708646771785
            ],
            [
              -73.98975418109097,
              40.71555234834068
            ],
            [
              -73.99020235909222,
              40.714664430893045
            ],
            [
              -73.99020761037266,
              40.71464099352845
            ],
            [
              -73.990756449606,
              40.714562313086
            ],
            [
              -73.991226807304,
              40.714494883592
            ],
            [
              -73.992136161466,
              40.71442804186
            ],
            [
              -73.992563718156,
              40.714396317705
            ],
            [
              -73.992823031344,
              40.714373470413
            ],
            [
              -73.993017180785,
              40.714363865128
            ],
            [
              -73.993951632266,
              40.714299071994
            ],
            [
              -73.994141688171,
              40.714277172474
            ],
            [
              -73.994319854139,
              40.71425912484
            ],
            [
              -73.994349163968,
              40.714256155861
            ],
            [
              -73.994501631774,
              40.714239404849
            ],
            [
              -73.994658146657,
              40.714227687672
            ],
            [
              -73.99472609171,
              40.714223952942
            ],
            [
              -73.994841785978,
              40.714217591989
            ],
            [
              -73.995105130871,
              40.714201596113
            ],
            [
              -73.99609129387,
              40.714142355721
            ],
            [
              -73.997445784322,
              40.714075113542
            ],
            [
              -73.997505751313,
              40.714077372114
            ],
            [
              -74.00085904309991,
              40.7142036691117
            ]
          ]
        ]
      }
    },
    {
      "type": "Feature",
      "properties": {
        "name": "Two Bridges",
        "definition_note": "Derived from the NYC DCP 2020 Neighborhood Tabulation Area 'Chinatown-Two Bridges' (NTA2020 code MN0301), split along the Division Street centerline (NYC DOT LION centerline dataset, street segments matching full_street_name='DIVISION ST' in Manhattan). This NTA does not distinguish Chinatown from Two Bridges; the split point and the decision to treat them as two study areas are researcher judgments for this project, not official City geography. Two Bridges is the portion south of the Division Street line, toward the Manhattan and Brooklyn Bridge approaches and the East River."
      },
      "geometry": {
        "type": "Polygon",
        "coordinates": [
          [
            [
              -73.98449647010706,
              40.7095096644421
            ],
            [
              -73.98639828917558,
              40.70932658388322
            ],
            [
              -73.98814626172096,
              40.70915916701502
            ],
            [
              -73.98815546051418,
              40.70914914197087
            ],
            [
              -73.98839064023267,
              40.70912694916282
            ],
            [
              -73.98844653437385,
              40.70913382054716
            ],
            [
              -73.98847967268766,
              40.70915584730865
            ],
            [
              -73.98849727173871,
              40.70917630579592
            ],
            [
              -73.98863658005804,
              40.7099120615164
            ],
            [
              -73.98864533493685,
              40.709916933898725
            ],
            [
              -73.98866750580943,
              40.7099200348309
            ],
            [
              -73.98869610271322,
              40.7099284503473
            ],
            [
              -73.98871771045194,
              40.70994709051896
            ],
            [
              -73.98873681707516,
              40.70997074234784
            ],
            [
              -73.98879717785803,
              40.70996660747239
            ],
            [
              -73.98889845980884,
              40.709954735765194
            ],
            [
              -73.98935765630632,
              40.70990098670798
            ],
            [
              -73.98946067019428,
              40.70988928705146
            ],
            [
              -73.98957449608709,
              40.709874082109266
            ],
            [
              -73.98974515155733,
              40.70984876215841
            ],
            [
              -73.99015825373382,
              40.709790372663925
            ],
            [
              -73.99051420376698,
              40.70973388411898
            ],
            [
              -73.99078913018568,
              40.709689506086285
            ],
            [
              -73.99106783463014,
              40.709657229340216
            ],
            [
              -73.9913510923706,
              40.7096203327035
            ],
            [
              -73.99170260226472,
              40.709565262956176
            ],
            [
              -73.99176779580138,
              40.7095550550213
            ],
            [
              -73.99190544366458,
              40.70952539607984
            ],
            [
              -73.99203926968352,
              40.709516919162915
            ],
            [
              -73.99209131635973,
              40.70950822240137
            ],
            [
              -73.9921486897015,
              40.709498609104266
            ],
            [
              -73.99236116139905,
              40.70946436931418
            ],
            [
              -73.99284846748647,
              40.709381877638926
            ],
            [
              -73.99374012862224,
              40.7092461209381
            ],
            [
              -73.99400820164043,
              40.70923748042178
            ],
            [
              -73.99414063200345,
              40.70923326740011
            ],
            [
              -73.99437823543936,
              40.7091926391991
            ],
            [
              -73.99457899963724,
              40.70913097291024
            ],
            [
              -73.99517577369834,
              40.70903429381047
            ],
            [
              -73.99601898395763,
              40.70891622384763
            ],
            [
              -73.99666400996587,
              40.70882690502046
            ],
            [
              -73.99728287195578,
              40.708731619843086
            ],
            [
              -73.99808351186998,
              40.708509615869886
            ],
            [
              -73.99828602320592,
              40.708429931467776
            ],
            [
              -73.99852758585311,
              40.70833152790845
            ],
            [
              -73.99856114620617,
              40.70831528273114
            ],
            [
              -73.99872197955064,
              40.70823745289637
            ],
            [
              -73.99875396570859,
              40.70822365052479
            ],
            [
              -73.99880846276645,
              40.708200134490276
            ],
            [
              -73.99882158420985,
              40.708175481175076
            ],
            [
              -73.9988813086388,
              40.70813663391996
            ],
            [
              -73.99898340963244,
              40.70809265331633
            ],
            [
              -73.99905276738552,
              40.70803254536394
            ],
            [
              -73.99913434786863,
              40.70798239694609
            ],
            [
              -73.9992236326119,
              40.70805305212369
            ],
            [
              -73.9992963135218,
              40.70811056798333
            ],
            [
              -73.9993344994738,
              40.708143761185525
            ],
            [
              -73.99937681738193,
              40.70817992532228
            ],
            [
              -73.99949511700498,
              40.70827907227096
            ],
            [
              -73.99975899410508,
              40.7084838220178
            ],
            [
              -73.99986942608709,
              40.70856951479835
            ],
            [
              -73.9999583436469,
              40.70863954804239
            ],
            [
              -74.0000648350309,
              40.708723431340076
            ],
            [
              -74.00013547110545,
              40.708779072540835
            ],
            [
              -74.00020611874571,
              40.70883471537311
            ],
            [
              -74.00047449159945,
              40.7090514992698
            ],
            [
              -74.0012241191708,
              40.70965701921405
            ],
            [
              -74.00141934562184,
              40.709814795772104
            ],
            [
              -74.00128258532506,
              40.70999405347307
            ],
            [
              -74.0012347649664,
              40.710055333035804
            ],
            [
              -74.00113646625368,
              40.710175964728094
            ],
            [
              -74.00100325442946,
              40.71035403076899
            ],
            [
              -74.00090633549209,
              40.71047783135652
            ],
            [
              -74.00079637659104,
              40.71061828715173
            ],
            [
              -74.00065774519857,
              40.71080077084201
            ],
            [
              -74.0005098596514,
              40.71098427045357
            ],
            [
              -74.00057195570146,
              40.71104595572029
            ],
            [
              -74.00062881532277,
              40.71111049841079
            ],
            [
              -74.00068021208688,
              40.71117764151832
            ],
            [
              -74.00072594131632,
              40.71124711768066
            ],
            [
              -74.0007658208999,
              40.71131865024449
            ],
            [
              -74.00079969198939,
              40.71139195459113
            ],
            [
              -74.00082741969965,
              40.71146673859666
            ],
            [
              -74.0008488935974,
              40.711542704469196
            ],
            [
              -74.00086402815117,
              40.71161954970954
            ],
            [
              -74.00087276307242,
              40.71169696831581
            ],
            [
              -74.00089166198869,
              40.712999258356206
            ],
            [
              -74.00089354259464,
              40.713029950788005
            ],
            [
              -74.00089640187132,
              40.71304741461341
            ],
            [
              -74.00093174200283,
              40.713263253045476
            ],
            [
              -74.00125701936294,
              40.71349677866777
            ],
            [
              -74.00156635547326,
              40.71368306399954
            ],
            [
              -74.00096840382477,
              40.713905596114685
            ],
            [
              -74.00085904309991,
              40.7142036691117
            ],
            [
              -73.997505751313,
              40.714077372114
            ],
            [
              -73.997445784322,
              40.714075113542
            ],
            [
              -73.99609129387,
              40.714142355721
            ],
            [
              -73.995105130871,
              40.714201596113
            ],
            [
              -73.994841785978,
              40.714217591989
            ],
            [
              -73.99472609171,
              40.714223952942
            ],
            [
              -73.994658146657,
              40.714227687672
            ],
            [
              -73.994501631774,
              40.714239404849
            ],
            [
              -73.994349163968,
              40.714256155861
            ],
            [
              -73.994319854139,
              40.71425912484
            ],
            [
              -73.994141688171,
              40.714277172474
            ],
            [
              -73.993951632266,
              40.714299071994
            ],
            [
              -73.993017180785,
              40.714363865128
            ],
            [
              -73.992823031344,
              40.714373470413
            ],
            [
              -73.992563718156,
              40.714396317705
            ],
            [
              -73.992136161466,
              40.71442804186
            ],
            [
              -73.991226807304,
              40.714494883592
            ],
            [
              -73.990756449606,
              40.714562313086
            ],
            [
              -73.99020761037266,
              40.71464099352845
            ],
            [
              -73.99022155496816,
              40.71457875640877
            ],
            [
              -73.99022750964427,
              40.714491670052816
            ],
            [
              -73.99022012603876,
              40.71440493989813
            ],
            [
              -73.98933656444504,
              40.71413337601421
            ],
            [
              -73.98870191200442,
              40.71418554116259
            ],
            [
              -73.98840468949098,
              40.71421005195973
            ],
            [
              -73.98766690183298,
              40.71427082223863
            ],
            [
              -73.9871662796891,
              40.714312057545854
            ],
            [
              -73.98585437560017,
              40.714420135766616
            ],
            [
              -73.98567127734,
              40.71443529826626
            ],
            [
              -73.98558505205506,
              40.714442405218534
            ],
            [
              -73.98534404351345,
              40.714461578232836
            ],
            [
              -73.98522844623366,
              40.71379292643618
            ],
            [
              -73.98506509275862,
              40.71380691898869
            ],
            [
              -73.98511380650824,
              40.713351257026694
            ],
            [
              -73.98505770123434,
              40.713077717775924
            ],
            [
              -73.98503128411657,
              40.71289988397275
            ],
            [
              -73.9850246208341,
              40.71285503094478
            ],
            [
              -73.98495041919544,
              40.712355530060826
            ],
            [
              -73.98485280777922,
              40.71169814288915
            ],
            [
              -73.98478405997494,
              40.71122878935756
            ],
            [
              -73.98470278689686,
              40.71070201588442
            ],
            [
              -73.98468361401434,
              40.71060508203816
            ],
            [
              -73.98467459366353,
              40.71056357736016
            ],
            [
              -73.98466491357523,
              40.71051417302448
            ],
            [
              -73.98465524451053,
              40.71046476215556
            ],
            [
              -73.98449647010706,
              40.7095096644421
            ]
          ]
        ]
      }
    },
    {
      "type": "Feature",
      "properties": {
        "name": "Lower East Side",
        "definition_note": "Taken as-is from the NYC DCP 2020 Neighborhood Tabulation Area 'Lower East Side' (NTA2020 code MN0302), unmodified. Included in the study area as the Lower East Side immediately adjacent to Chinatown and Two Bridges, per the project's research scope."
      },
      "geometry": {
        "type": "MultiPolygon",
        "coordinates": [
          [
            [
              [
                -73.98245898564491,
                40.70554241497245
              ],
              [
                -73.9824228717988,
                40.70582205494961
              ],
              [
                -73.98102390618274,
                40.70589891389373
              ],
              [
                -73.9810173390096,
                40.70579750596535
              ],
              [
                -73.98230205183854,
                40.705736979902404
              ],
              [
                -73.98232944150546,
                40.7055520336641
              ],
              [
                -73.98237340439913,
                40.70554335043761
              ],
              [
                -73.98245898564491,
                40.70554241497245
              ]
            ]
          ],
          [
            [
              [
                -73.97506051050303,
                40.718785451244116
              ],
              [
                -73.97498996537453,
                40.71877900827139
              ],
              [
                -73.97492162524021,
                40.71878173045884
              ],
              [
                -73.97487087038486,
                40.71879677988685
              ],
              [
                -73.97480627348862,
                40.7188177198584
              ],
              [
                -73.97474239882223,
                40.71884079474656
              ],
              [
                -73.97468709704181,
                40.71882935509298
              ],
              [
                -73.97464860405941,
                40.718821269317
              ],
              [
                -73.9736123433092,
                40.71860565408387
              ],
              [
                -73.97357185653394,
                40.71859722992405
              ],
              [
                -73.97374101738151,
                40.71809467627212
              ],
              [
                -73.97391750479389,
                40.71759358356498
              ],
              [
                -73.97410129682494,
                40.71709401364574
              ],
              [
                -73.97429237062813,
                40.716596028168134
              ],
              [
                -73.97449070246019,
                40.716099688589054
              ],
              [
                -73.9746962676835,
                40.71560505616096
              ],
              [
                -73.97490904076973,
                40.71511219192409
              ],
              [
                -73.97512899530261,
                40.71462115669945
              ],
              [
                -73.9751497793714,
                40.71457942336109
              ],
              [
                -73.97516360806196,
                40.71455190518881
              ],
              [
                -73.97518850986295,
                40.71450316072415
              ],
              [
                -73.97521387023663,
                40.71444849879866
              ],
              [
                -73.97522549627963,
                40.71442343994215
              ],
              [
                -73.97524666388613,
                40.71437780680823
              ],
              [
                -73.97524670420702,
                40.714377725063805
              ],
              [
                -73.97580311283951,
                40.71317812509194
              ],
              [
                -73.97579532792415,
                40.713170023694374
              ],
              [
                -73.97596844519683,
                40.71278957339107
              ],
              [
                -73.9760498138943,
                40.71260419428054
              ],
              [
                -73.97612368838762,
                40.71246032590113
              ],
              [
                -73.9761653123831,
                40.71242019791103
              ],
              [
                -73.9763112786719,
                40.71211864731037
              ],
              [
                -73.97642872514517,
                40.71190903250389
              ],
              [
                -73.97650540115386,
                40.71179878945266
              ],
              [
                -73.9765500881422,
                40.71173453872846
              ],
              [
                -73.97671221539667,
                40.711535765178574
              ],
              [
                -73.97681883474013,
                40.71141956702121
              ],
              [
                -73.97699076574622,
                40.71125666023073
              ],
              [
                -73.97705659401758,
                40.71119762596446
              ],
              [
                -73.97722213562588,
                40.711068730725934
              ],
              [
                -73.97752668432635,
                40.710843072733326
              ],
              [
                -73.97772119493052,
                40.71071007466089
              ],
              [
                -73.97782091638229,
                40.71064544540978
              ],
              [
                -73.97789949619433,
                40.71059986620255
              ],
              [
                -73.97799674790397,
                40.7105610168892
              ],
              [
                -73.97807974906617,
                40.7105322505774
              ],
              [
                -73.97818190694295,
                40.71050686501523
              ],
              [
                -73.97825557749216,
                40.71049790905548
              ],
              [
                -73.97837148165253,
                40.710489707491774
              ],
              [
                -73.97861560123977,
                40.71047378241362
              ],
              [
                -73.97877613342088,
                40.71046331504746
              ],
              [
                -73.97918894377,
                40.71043492338845
              ],
              [
                -73.97920726434594,
                40.71043366689588
              ],
              [
                -73.97929015237106,
                40.71042814506969
              ],
              [
                -73.98003642292828,
                40.71037840126683
              ],
              [
                -73.98028344332192,
                40.71036181510862
              ],
              [
                -73.98033652490477,
                40.710359200212295
              ],
              [
                -73.98033090124423,
                40.71028693831376
              ],
              [
                -73.98051046026367,
                40.71027475144327
              ],
              [
                -73.98128647552548,
                40.71021834788182
              ],
              [
                -73.98124579569932,
                40.709826215104044
              ],
              [
                -73.98306019477388,
                40.70964791225086
              ],
              [
                -73.98364234472628,
                40.70959187924491
              ],
              [
                -73.98449647010712,
                40.7095096644421
              ],
              [
                -73.98465524451048,
                40.71046476215556
              ],
              [
                -73.98466491357507,
                40.710514173024514
              ],
              [
                -73.98467459366348,
                40.71056357736022
              ],
              [
                -73.9846836140143,
                40.71060508203816
              ],
              [
                -73.98470278689686,
                40.71070201588442
              ],
              [
                -73.98478405997501,
                40.71122878935756
              ],
              [
                -73.98485280777926,
                40.7116981428892
              ],
              [
                -73.98495041919527,
                40.712355530060826
              ],
              [
                -73.98502462083403,
                40.71285503094484
              ],
              [
                -73.98503128411647,
                40.71289988397278
              ],
              [
                -73.98505770123428,
                40.713077717775924
              ],
              [
                -73.9851138065082,
                40.713351257026694
              ],
              [
                -73.98506509275857,
                40.71380691898869
              ],
              [
                -73.98522844623366,
                40.71379292643618
              ],
              [
                -73.9853440435134,
                40.714461578232864
              ],
              [
                -73.98558505205496,
                40.714442405218534
              ],
              [
                -73.98567127733983,
                40.714435298266295
              ],
              [
                -73.98585437560017,
                40.714420135766616
              ],
              [
                -73.9871662796891,
                40.714312057545854
              ],
              [
                -73.98766690183292,
                40.71427082223863
              ],
              [
                -73.98840468949098,
                40.71421005195973
              ],
              [
                -73.98870191200437,
                40.71418554116262
              ],
              [
                -73.98933656444504,
                40.714133376014246
              ],
              [
                -73.99022012603865,
                40.71440493989818
              ],
              [
                -73.99022750964416,
                40.714491670052816
              ],
              [
                -73.99022155496799,
                40.714578756408805
              ],
              [
                -73.99020235909205,
                40.714664430893045
              ],
              [
                -73.98975418109092,
                40.71555234834068
              ],
              [
                -73.9891546375074,
                40.71670864677182
              ],
              [
                -73.98995019068624,
                40.71697197555474
              ],
              [
                -73.99070289946371,
                40.71720060592557
              ],
              [
                -73.99117623136941,
                40.71734296009514
              ],
              [
                -73.99130415304928,
                40.717381681935606
              ],
              [
                -73.99142272626793,
                40.71741757692703
              ],
              [
                -73.9922206428515,
                40.717658446765185
              ],
              [
                -73.99309432105572,
                40.7179224792367
              ],
              [
                -73.99382785532457,
                40.71814447755253
              ],
              [
                -73.99480778889186,
                40.71845742685302
              ],
              [
                -73.9943986617055,
                40.719457108928
              ],
              [
                -73.99423470916292,
                40.71985151506629
              ],
              [
                -73.99416805894519,
                40.720011846252234
              ],
              [
                -73.99407263067107,
                40.72024349190821
              ],
              [
                -73.9940415520235,
                40.72032097982335
              ],
              [
                -73.99383792118104,
                40.72083214912449
              ],
              [
                -73.99379593781067,
                40.72093753796844
              ],
              [
                -73.9935273123567,
                40.721633262371185
              ],
              [
                -73.99336181506891,
                40.72208001783559
              ],
              [
                -73.99333917242919,
                40.72214114067458
              ],
              [
                -73.9932601606281,
                40.72235442627806
              ],
              [
                -73.99309190138952,
                40.72282008536928
              ],
              [
                -73.99263254954289,
                40.724056865655164
              ],
              [
                -73.99260322198428,
                40.72413644968361
              ],
              [
                -73.99253198772745,
                40.72411456659975
              ],
              [
                -73.99219861177944,
                40.724012609684195
              ],
              [
                -73.99135472734818,
                40.72375461958757
              ],
              [
                -73.99127307096381,
                40.72372981344214
              ],
              [
                -73.99102410395398,
                40.723649432740544
              ],
              [
                -73.99027361581857,
                40.72342601879592
              ],
              [
                -73.9893921810376,
                40.72317405899775
              ],
              [
                -73.98875683194557,
                40.72297036611125
              ],
              [
                -73.98863862694621,
                40.722933720766335
              ],
              [
                -73.9885436135351,
                40.722903617853575
              ],
              [
                -73.98786491366825,
                40.72269708870194
              ],
              [
                -73.9871358474217,
                40.722469811623306
              ],
              [
                -73.98628573956006,
                40.72224192000888
              ],
              [
                -73.98585984110207,
                40.7220997322586
              ],
              [
                -73.9855168611052,
                40.72198522495781
              ],
              [
                -73.98467780163293,
                40.72173060534054
              ],
              [
                -73.98382387210108,
                40.721472872067025
              ],
              [
                -73.9830030854691,
                40.72122268107842
              ],
              [
                -73.98216615175821,
                40.72096885477434
              ],
              [
                -73.98130824107952,
                40.72070878563628
              ],
              [
                -73.98008058907905,
                40.720339340510044
              ],
              [
                -73.9796602165646,
                40.72021282967874
              ],
              [
                -73.97875234830163,
                40.71993370711215
              ],
              [
                -73.97803122530533,
                40.71963834764645
              ],
              [
                -73.97722379174816,
                40.719309775859564
              ],
              [
                -73.9767449554882,
                40.71921523353867
              ],
              [
                -73.97648182372318,
                40.71915962886312
              ],
              [
                -73.97635525073238,
                40.719132884921976
              ],
              [
                -73.97610198547082,
                40.719080694260015
              ],
              [
                -73.97551012651918,
                40.71895861253018
              ],
              [
                -73.97545167479797,
                40.718946559928376
              ],
              [
                -73.97548131398722,
                40.71889110782664
              ],
              [
                -73.97509719746351,
                40.71879443343051
              ],
              [
                -73.97506051050303,
                40.718785451244116
              ]
            ]
          ]
        ]
      }
    }
  ]
}